format  = 'OEF1.1'       ! file format
rectype = '1L'           ! record type (1L/ML)
elem    = 'KEP'          ! type of orbital elements
refsys  = ECLM J2000     ! default reference system
END_OF_HEADER
! Name, Epoch(MJD), a, e, i, long. node, arg. peric., mean anomaly
  910001        58400.000000     2.573879159300    0.098270200466    11.7743481149     94.03557048    345.30731988     48.95088549    11.70     0.15     0
  910002        58400.000000     2.573879159300    0.098270200466    11.7743481149     94.03557048    345.30731988     48.95088549    11.70     0.15     0
  910003        58400.000000     2.574020324364    0.098307752049    11.7807248815     94.03557048    345.30731988     48.95088549    14.00     0.15     0
  910004        58400.000000     2.574020324364    0.098307752049    11.7807248815     94.03557048    345.30731988     48.95088549    14.00     0.15     0
  910005        58400.000000     2.573841866334    0.098337220900    11.7814434816     94.03557048    345.30731988     48.95088549    14.30     0.15     0
  910006        58400.000000     2.573841866334    0.098337220900    11.7814434816     94.03557048    345.30731988     48.95088549    14.30     0.15     0
  910007        58400.000000     2.574177805965    0.098424367270    11.7790820564     94.03557048    345.30731988     48.95088549    14.33     0.15     0
  910008        58400.000000     2.574177805965    0.098424367270    11.7790820564     94.03557048    345.30731988     48.95088549    14.33     0.15     0
  910009        58400.000000     2.574429273113    0.098320530049    11.7763077334     94.03557048    345.30731988     48.95088549    14.40     0.15     0
  910010        58400.000000     2.574429273113    0.098320530049    11.7763077334     94.03557048    345.30731988     48.95088549    14.40     0.15     0
  910011        58400.000000     2.573937366333    0.098296891323    11.7782154999     94.03557048    345.30731988     48.95088549    14.50     0.15     0
  910012        58400.000000     2.573937366333    0.098296891323    11.7782154999     94.03557048    345.30731988     48.95088549    14.50     0.15     0
  910013        58400.000000     2.574221648600    0.098363083346    11.7770842919     94.03557048    345.30731988     48.95088549    14.60     0.15     0
  910014        58400.000000     2.574221648600    0.098363083346    11.7770842919     94.03557048    345.30731988     48.95088549    14.60     0.15     0
  910015        58400.000000     2.574511137136    0.098334916805    11.7777493439     94.03557048    345.30731988     48.95088549    14.70     0.15     0
